start=new Date('2023-07-02T00:00:00.000Z').valueOf();
sats=[{"MEAN_MOTION_DDOT":"0.0000000000000","BSTAR":"0.00070631000000","REV_AT_EPOCH":"11877","MEAN_ELEMENT_THEORY":"SGP4","ELEMENT_SET_NO":"999","EPHEMERIS_TYPE":"0","RCS_SIZE":"LARGE","NORAD_CAT_ID":"48482","OBJECT_TYPE":"PAYLOAD","ARG_OF_PERICENTER":"84.8657","REF_FRAME":"TEME","OBJECT_ID":"2021-040BG","ECCENTRICITY":"0.00012870","TIME_SYSTEM":"UTC","OBJECT_NAME":"STARLINK-2525","RA_OF_ASC_NODE":"290.2862","INCLINATION":"53.0543","APOAPSIS":"548.032","TLE_LINE2":"2 48482  53.0543 290.2862 0001287  84.8657 275.2478 15.06423764118770","CENTER_NAME":"EARTH","DECAY_DATE":null,"GP_ID":"234659516","FILE":"3947134","EPOCH":"2023-07-01T14:58:12.003456","PERIAPSIS":"546.249","LAUNCH_DATE":"2021-05-09","MEAN_MOTION":"15.06423764","MEAN_ANOMALY":"275.2478","MEAN_MOTION_DOT":"0.00010261","COUNTRY_CODE":"US","TLE_LINE1":"1 48482U 21040BG  23182.62375004  .00010261  00000-0  70631-3 0  9996","SEMIMAJOR_AXIS":"6925.276","CLASSIFICATION_TYPE":"U","SITE":"AFETR","PERIOD":"95.591"},{"GP_ID":"234659517","DECAY_DATE":null,"FILE":"3947134","CENTER_NAME":"EARTH","PERIAPSIS":"546.406","EPOCH":"2023-07-01T16:28:25.616640","RA_OF_ASC_NODE":"290.0054","INCLINATION":"53.0544","TLE_LINE2":"2 48483  53.0544 290.0054 0001005  78.0008 282.1094 15.06436542119619","APOAPSIS":"547.798","OBJECT_NAME":"STARLINK-2531","SITE":"AFETR","PERIOD":"95.590","TLE_LINE1":"1 48483U 21040BH  23182.68640760  .00018196  00000-0  12361-2 0  9997","SEMIMAJOR_AXIS":"6925.237","CLASSIFICATION_TYPE":"U","MEAN_MOTION_DOT":"0.00018196","COUNTRY_CODE":"US","MEAN_MOTION":"15.06436542","LAUNCH_DATE":"2021-05-09","MEAN_ANOMALY":"282.1094","RCS_SIZE":"LARGE","EPHEMERIS_TYPE":"0","ELEMENT_SET_NO":"999","MEAN_ELEMENT_THEORY":"SGP4","MEAN_MOTION_DDOT":"0.0000000000000","REV_AT_EPOCH":"11961","BSTAR":"0.00123610000000","ECCENTRICITY":"0.00010050","OBJECT_ID":"2021-040BH","REF_FRAME":"TEME","TIME_SYSTEM":"UTC","ARG_OF_PERICENTER":"78.0008","OBJECT_TYPE":"PAYLOAD","NORAD_CAT_ID":"48483"},{"MEAN_ELEMENT_THEORY":"SGP4","BSTAR":"0.00001319400000","REV_AT_EPOCH":"11951","MEAN_MOTION_DDOT":"0.0000000000000","RCS_SIZE":"LARGE","ELEMENT_SET_NO":"999","EPHEMERIS_TYPE":"0","NORAD_CAT_ID":"48484","TIME_SYSTEM":"UTC","REF_FRAME":"TEME","ECCENTRICITY":"0.00008640","OBJECT_ID":"2021-040BJ","OBJECT_TYPE":"PAYLOAD","ARG_OF_PERICENTER":"97.6800","APOAPSIS":"547.817","TLE_LINE2":"2 48484  53.0558 293.2882 0000864  97.6800 262.4287 15.06398387119516","RA_OF_ASC_NODE":"293.2882","INCLINATION":"53.0558","OBJECT_NAME":"STARLINK-2696","EPOCH":"2023-07-01T00:49:01.253856","PERIAPSIS":"546.620","CENTER_NAME":"EARTH","DECAY_DATE":null,"GP_ID":"234646057","FILE":"3946576","COUNTRY_CODE":"US","MEAN_MOTION_DOT":"-0.00000085","MEAN_ANOMALY":"262.4287","LAUNCH_DATE":"2021-05-09","MEAN_MOTION":"15.06398387","PERIOD":"95.592","SITE":"AFETR","CLASSIFICATION_TYPE":"U","TLE_LINE1":"1 48484U 21040BJ  23182.03404229 -.00000085  00000-0  13194-4 0  9991","SEMIMAJOR_AXIS":"6925.354"},{"CENTER_NAME":"EARTH","GP_ID":"234659034","FILE":"3947135","DECAY_DATE":null,"EPOCH":"2023-07-01T16:39:02.649888","PERIAPSIS":"546.268","RA_OF_ASC_NODE":"289.9703","INCLINATION":"53.0553","APOAPSIS":"547.951","TLE_LINE2":"2 48485  53.0553 289.9703 0001215  78.6376 281.4750 15.06433899119619","OBJECT_NAME":"STARLINK-2500","SITE":"AFETR","PERIOD":"95.590","TLE_LINE1":"1 48485U 21040BK  23182.69378067  .00012333  00000-0  84461-3 0  9996","SEMIMAJOR_AXIS":"6925.245","CLASSIFICATION_TYPE":"U","MEAN_MOTION_DOT":"0.00012333","COUNTRY_CODE":"US","LAUNCH_DATE":"2021-05-09","MEAN_MOTION":"15.06433899","MEAN_ANOMALY":"281.4750","RCS_SIZE":"LARGE","ELEMENT_SET_NO":"999","EPHEMERIS_TYPE":"0","MEAN_ELEMENT_THEORY":"SGP4","MEAN_MOTION_DDOT":"0.0000000000000","BSTAR":"0.00084461000000","REV_AT_EPOCH":"11961","REF_FRAME":"TEME","ECCENTRICITY":"0.00012150","OBJECT_ID":"2021-040BK","TIME_SYSTEM":"UTC","OBJECT_TYPE":"PAYLOAD","ARG_OF_PERICENTER":"78.6376","NORAD_CAT_ID":"48485"},{"NORAD_CAT_ID":"48486","ARG_OF_PERICENTER":"88.9027","OBJECT_TYPE":"PAYLOAD","TIME_SYSTEM":"UTC","OBJECT_ID":"2021-040BL","ECCENTRICITY":"0.00011800","REF_FRAME":"TEME","REV_AT_EPOCH":"11955","BSTAR":"0.00106200000000","MEAN_MOTION_DDOT":"0.0000000000000","MEAN_ELEMENT_THEORY":"SGP4","EPHEMERIS_TYPE":"0","ELEMENT_SET_NO":"999","RCS_SIZE":"LARGE","MEAN_ANOMALY":"271.2097","MEAN_MOTION":"15.06397773","LAUNCH_DATE":"2021-05-09","COUNTRY_CODE":"US","MEAN_MOTION_DOT":"0.00015571","CLASSIFICATION_TYPE":"U","TLE_LINE1":"1 48486U 21040BL  23182.29845616  .00015571  00000-0  10620-2 0  9994","SEMIMAJOR_AXIS":"6925.355","PERIOD":"95.592","SITE":"AFETR","OBJECT_NAME":"STARLINK-2496","TLE_LINE2":"2 48486  53.0545 291.7342 0001180  88.9027 271.2097 15.06397773119553","APOAPSIS":"548.038","RA_OF_ASC_NODE":"291.7342","INCLINATION":"53.0545","PERIAPSIS":"546.403","EPOCH":"2023-07-01T07:09:46.612224","GP_ID":"234652583","FILE":"3946857","DECAY_DATE":null,"CENTER_NAME":"EARTH"},{"OBJECT_TYPE":"PAYLOAD","ARG_OF_PERICENTER":"78.4214","TIME_SYSTEM":"UTC","REF_FRAME":"TEME","OBJECT_ID":"2021-040BM","ECCENTRICITY":"0.00010530","NORAD_CAT_ID":"48487","ELEMENT_SET_NO":"999","EPHEMERIS_TYPE":"0","RCS_SIZE":"LARGE","BSTAR":"0.00098917000000","REV_AT_EPOCH":"11962","MEAN_MOTION_DDOT":"0.0000000000000","MEAN_ELEMENT_THEORY":"SGP4","CLASSIFICATION_TYPE":"U","TLE_LINE1":"1 48487U 21040BM  23182.70115200  .00014497  00000-0  98917-3 0  9992","SEMIMAJOR_AXIS":"6925.243","PERIOD":"95.590","SITE":"AFETR","MEAN_ANOMALY":"281.6893","LAUNCH_DATE":"2021-05-09","MEAN_MOTION":"15.06434553","COUNTRY_CODE":"US","MEAN_MOTION_DOT":"0.00014497","EPOCH":"2023-07-01T16:49:39.532800","PERIAPSIS":"546.378","CENTER_NAME":"EARTH","FILE":"3947137","GP_ID":"234659557","DECAY_DATE":null,"OBJECT_NAME":"STARLINK-2494","APOAPSIS":"547.837","TLE_LINE2":"2 48487  53.0536 289.9400 0001053  78.4214 281.6893 15.06434553119624","RA_OF_ASC_NODE":"289.9400","INCLINATION":"53.0536"},{"CENTER_NAME":"EARTH","GP_ID":"234648276","FILE":"3946703","DECAY_DATE":null,"EPOCH":"2023-07-01T09:54:19.331136","PERIAPSIS":"546.435","OBJECT_NAME":"STARLINK-2063","RA_OF_ASC_NODE":"221.2325","INCLINATION":"53.0518","APOAPSIS":"547.905","TLE_LINE2":"2 48553  53.0518 221.2325 0001061  82.6776 277.4334 15.06414180117605","SEMIMAJOR_AXIS":"6925.305","TLE_LINE1":"1 48553U 21041A   23182.41272374  .00001966  00000-0  15080-3 0  9998","CLASSIFICATION_TYPE":"U","SITE":"AFETR","PERIOD":"95.591","LAUNCH_DATE":"2021-05-15","MEAN_MOTION":"15.06414180","MEAN_ANOMALY":"277.4334","MEAN_MOTION_DOT":"0.00001966","COUNTRY_CODE":"US","ELEMENT_SET_NO":"999","EPHEMERIS_TYPE":"0","RCS_SIZE":"LARGE","MEAN_MOTION_DDOT":"0.0000000000000","BSTAR":"0.00015080000000","REV_AT_EPOCH":"11760","MEAN_ELEMENT_THEORY":"SGP4","OBJECT_TYPE":"PAYLOAD","ARG_OF_PERICENTER":"82.6776","REF_FRAME":"TEME","ECCENTRICITY":"0.00010610","OBJECT_ID":"2021-041A","TIME_SYSTEM":"UTC","NORAD_CAT_ID":"48553"},{"TLE_LINE1":"1 48554U 21041B   23182.35375391  .00001704  00000-0  13325-3 0  9995","SEMIMAJOR_AXIS":"6925.314","CLASSIFICATION_TYPE":"U","SITE":"AFETR","PERIOD":"95.591","LAUNCH_DATE":"2021-05-15","MEAN_MOTION":"15.06411130","MEAN_ANOMALY":"275.8949","MEAN_MOTION_DOT":"0.00001704","COUNTRY_CODE":"US","CENTER_NAME":"EARTH","FILE":"3946814","GP_ID":"234651376","DECAY_DATE":null,"EPOCH":"2023-07-01T08:29:24.337824","PERIAPSIS":"546.353","OBJECT_NAME":"STARLINK-2139","INCLINATION":"53.0533","RA_OF_ASC_NODE":"221.4961","APOAPSIS":"548.006","TLE_LINE2":"2 48554  53.0533 221.4961 0001194  84.2176 275.8949 15.06411130117549","OBJECT_TYPE":"PAYLOAD","ARG_OF_PERICENTER":"84.2176","REF_FRAME":"TEME","OBJECT_ID":"2021-041B","ECCENTRICITY":"0.00011940","TIME_SYSTEM":"UTC","NORAD_CAT_ID":"48554","ELEMENT_SET_NO":"999","EPHEMERIS_TYPE":"0","RCS_SIZE":"LARGE","MEAN_MOTION_DDOT":"0.0000000000000","BSTAR":"0.00013325000000","REV_AT_EPOCH":"11754","MEAN_ELEMENT_THEORY":"SGP4"},{"OBJECT_TYPE":"PAYLOAD","ARG_OF_PERICENTER":"99.8300","REF_FRAME":"TEME","OBJECT_ID":"2021-041C","ECCENTRICITY":"0.00011180","TIME_SYSTEM":"UTC","NORAD_CAT_ID":"48555","ELEMENT_SET_NO":"999","EPHEMERIS_TYPE":"0","RCS_SIZE":"LARGE","MEAN_MOTION_DDOT":"0.0000000000000","BSTAR":"0.00012108000000","REV_AT_EPOCH":"11745","MEAN_ELEMENT_THEORY":"SGP4","SEMIMAJOR_AXIS":"6925.313","TLE_LINE1":"1 48555U 21041C   23182.38231535  .00001523  00000-0  12108-3 0  9997","CLASSIFICATION_TYPE":"U","SITE":"AFETR","PERIOD":"95.591","LAUNCH_DATE":"2021-05-15","MEAN_MOTION":"15.06411713","MEAN_ANOMALY":"260.2815","MEAN_MOTION_DOT":"0.00001523","COUNTRY_CODE":"US","CENTER_NAME":"EARTH","DECAY_DATE":null,"GP_ID":"234651383","FILE":"3946827","EPOCH":"2023-07-01T09:10:32.046240","PERIAPSIS":"546.403","OBJECT_NAME":"STARLINK-2145","RA_OF_ASC_NODE":"231.3684","INCLINATION":"53.0550","APOAPSIS":"547.952","TLE_LINE2":"2 48555  53.0550 231.3684 0001118  99.8300 260.2815 15.06411713117455"},{"DECAY_DATE":null,"GP_ID":"234651381","FILE":"3946827","CENTER_NAME":"EARTH","PERIAPSIS":"546.439","EPOCH":"2023-07-01T08:54:36.785376","RA_OF_ASC_NODE":"231.4152","INCLINATION":"53.0527","TLE_LINE2":"2 48556  53.0527 231.4152 0001044  87.1232 272.9877 15.06416763117451","APOAPSIS":"547.885","OBJECT_NAME":"STARLINK-2151","SITE":"AFETR","PERIOD":"95.591","TLE_LINE1":"1 48556U 21041D   23182.37125909  .00004211  00000-0  30126-3 0  9991","SEMIMAJOR_AXIS":"6925.297","CLASSIFICATION_TYPE":"U","MEAN_MOTION_DOT":"0.00004211","COUNTRY_CODE":"US","MEAN_MOTION":"15.06416763","LAUNCH_DATE":"2021-05-15","MEAN_ANOMALY":"272.9877","RCS_SIZE":"LARGE","EPHEMERIS_TYPE":"0","ELEMENT_SET_NO":"999","MEAN_ELEMENT_THEORY":"SGP4","MEAN_MOTION_DDOT":"0.0000000000000","REV_AT_EPOCH":"11745","BSTAR":"0.00030126000000","OBJECT_ID":"2021-041D","ECCENTRICITY":"0.00010440","REF_FRAME":"TEME","TIME_SYSTEM":"UTC","ARG_OF_PERICENTER":"87.1232","OBJECT_TYPE":"PAYLOAD","NORAD_CAT_ID":"48556"}];
